KNACKSAT-2              
1 67683U 98067XZ  26181.35012679  .00038944  00000+0  45592-3 0  9996
2 67683  51.6260 228.2118 0008493 273.6004  86.4018 15.61112165 22338
GEOSCAN 3 (RS92S3)      
1 64893U 25155T   26181.81197155  .00020876  00000+0  59921-3 0  9994
2 64893  97.4542 151.8516 0008231 123.6500 236.5529 15.35850784 82942
INNOSAT 3 (RS92S0)      
1 64894U 25155U   26181.85517742  .00049382  00000+0  10497-2 0  9994
2 64894  97.4488 153.6872 0008003 121.1403 239.0631 15.44811049 83077
