OBJECT_NAME,OBJECT_ID,EPOCH,MEAN_MOTION,ECCENTRICITY,INCLINATION,RA_OF_ASC_NODE,ARG_OF_PERICENTER,MEAN_ANOMALY,EPHEMERIS_TYPE,CLASSIFICATION_TYPE,NORAD_CAT_ID,ELEMENT_SET_NO,REV_AT_EPOCH,BSTAR,MEAN_MOTION_DOT,MEAN_MOTION_DDOT
GEOSCAN 3 (RS92S3),2025-155T,2026-06-30T19:29:14.341920,15.35850784,.0008231,97.4542,151.8516,123.6500,236.5529,0,U,64893,999,8294,.59921E-3,.20876E-3,0
INNOSAT 3 (RS92S0),2025-155U,2026-06-30T20:31:27.329088,15.44811049,.0008003,97.4488,153.6872,121.1403,239.0631,0,U,64894,999,8307,.10497E-2,.49382E-3,0
KNACKSAT-2,1998-067XZ,2026-06-30T08:24:10.954656,15.61112165,.00084933,51.6260,228.2118,273.6004,86.4018,0,U,67683,999,2233,.45592226E-3,.38944E-3,0
